FLOCK 4G-7              
1 62624U 25009R   26068.79996108  .00011422  00000+0  43168-3 0  9991
2 62624  97.3984 150.8270 0001396 336.9783  23.1393 15.27141471 63725
TIANHUI 7               
1 67300U 25314A   26052.67009905  .00006572  00000+0  25701-3 0  9999
2 67300  97.4117 129.4508 0001691  83.9579 276.1853 15.26178925  8178
